{"type": "FeatureCollection", "features": [ {"type": "Feature", "properties": {"norad_id": 34077, "name": "IRIDIUM 33 DEB", "group": "iridium-33-debris", "lat": -19.02447023013317, "lon": 52.95998349212898, "alt_km": 681.5841435922084, "timestamp": "2025-12-06T14:35:37.510840+00:00", "meta": {"OBJECT_NAME": "IRIDIUM 33 DEB", "OBJECT_ID": "1997-051CL", "EPOCH": "2025-12-05T23:05:18.140064", "MEAN_MOTION": 14.64674257, "ECCENTRICITY": 0.00107697, "INCLINATION": 86.387, "RA_OF_ASC_NODE": 54.4927, "ARG_OF_PERICENTER": 60.5713, "MEAN_ANOMALY": 116.2459, "EPHEMERIS_TYPE": 0, "CLASSIFICATION_TYPE": "U", "NORAD_CAT_ID": 34077, "ELEMENT_SET_NO": 999, "REV_AT_EPOCH": 88233, "BSTAR": 0.0027478125, "MEAN_MOTION_DOT": 0.00014664, "MEAN_MOTION_DDOT": 0}, "tle": {"line1": "1 34077U 97051CL  25339.96201551  .00014664  00000+0  27478-2 0  9994", "line2": "2 34077  86.3870  54.4927 0010769  60.5713 116.2459 14.64674257882339"}}, "geometry": {"type": "Point", "coordinates": [52.95998349212898, -19.02447023013317]}}, {"type": "Feature", "properties": {"norad_id": 34079, "name": "IRIDIUM 33 DEB", "group": "iridium-33-debris", "lat": -77.38006186138803, "lon": -4.988641377203364, "alt_km": 627.5126257847687, "timestamp": "2025-12-06T14:35:37.510851+00:00", "meta": {"OBJECT_NAME": "IRIDIUM 33 DEB", "OBJECT_ID": "1997-051CN", "EPOCH": "2025-12-06T02:07:07.056768", "MEAN_MOTION": 14.83267181, "ECCENTRICITY": 0.00063789, "INCLINATION": 86.377, "RA_OF_ASC_NODE": 11.6867, "ARG_OF_PERICENTER": 28.4857, "MEAN_ANOMALY": 359.9327, "EPHEMERIS_TYPE": 0, "CLASSIFICATION_TYPE": "U", "NORAD_CAT_ID": 34079, "ELEMENT_SET_NO": 999, "REV_AT_EPOCH": 88879, "BSTAR": 0.0024134551, "MEAN_MOTION_DOT": 0.000198, "MEAN_MOTION_DDOT": 0}, "tle": {"line1": "1 34079U 97051CN  25340.08827612  .00019800  00000+0  24135-2 0  9997", "line2": "2 34079  86.3770  11.6867 0006378  28.4857 359.9327 14.83267181888792"}}, "geometry": {"type": "Point", "coordinates": [-4.988641377203364, -77.38006186138803]}}, {"type": "Feature", "properties": {"norad_id": 34088, "name": "IRIDIUM 33 DEB", "group": "iridium-33-debris", "lat": -22.717526207461603, "lon": -144.9423463249006, "alt_km": 596.9603324452873, "timestamp": "2025-12-06T14:35:37.510861+00:00", "meta": {"OBJECT_NAME": "IRIDIUM 33 DEB", "OBJECT_ID": "1997-051CX", "EPOCH": "2025-12-06T02:30:13.058784", "MEAN_MOTION": 14.90896268, "ECCENTRICITY": 0.00051753, "INCLINATION": 86.3851, "RA_OF_ASC_NODE": 33.7722, "ARG_OF_PERICENTER": 201.3687, "MEAN_ANOMALY": 179.2709, "EPHEMERIS_TYPE": 0, "CLASSIFICATION_TYPE": "U", "NORAD_CAT_ID": 34088, "ELEMENT_SET_NO": 999, "REV_AT_EPOCH": 88643, "BSTAR": 0.0039591106, "MEAN_MOTION_DOT": 0.00039232, "MEAN_MOTION_DDOT": 0}, "tle": {"line1": "1 34088U 97051CX  25340.10431781  .00039232  00000+0  39591-2 0  9991", "line2": "2 34088  86.3851  33.7722 0005175 201.3687 179.2709 14.90896268886432"}}, "geometry": {"type": "Point", "coordinates": [-144.9423463249006, -22.717526207461603]}}, {"type": "Feature", "properties": {"norad_id": 34091, "name": "IRIDIUM 33 DEB", "group": "iridium-33-debris", "lat": -61.40913494271442, "lon": -103.6191788605689, "alt_km": 626.505281337264, "timestamp": "2025-12-06T14:35:37.510871+00:00", "meta": {"OBJECT_NAME": "IRIDIUM 33 DEB", "OBJECT_ID": "1997-051DA", "EPOCH": "2025-12-06T05:23:45.235968", "MEAN_MOTION": 14.81055603, "ECCENTRICITY": 0.00332526, "INCLINATION": 86.3425, "RA_OF_ASC_NODE": 69.816, "ARG_OF_PERICENTER": 316.6294, "MEAN_ANOMALY": 43.2311, "EPHEMERIS_TYPE": 0, "CLASSIFICATION_TYPE": "U", "NORAD_CAT_ID": 34091, "ELEMENT_SET_NO": 999, "REV_AT_EPOCH": 87770, "BSTAR": 0.0080585936, "MEAN_MOTION_DOT": 0.00063608, "MEAN_MOTION_DDOT": 0}, "tle": {"line1": "1 34091U 97051DA  25340.22482912  .00063608  00000+0  80586-2 0  9994", "line2": "2 34091  86.3425  69.8160 0033252 316.6294  43.2311 14.81055603877709"}}, "geometry": {"type": "Point", "coordinates": [-103.6191788605689, -61.40913494271442]}}, {"type": "Feature", "properties": {"norad_id": 34097, "name": "IRIDIUM 33 DEB", "group": "iridium-33-debris", "lat": 79.92575109098019, "lon": 26.08269539455626, "alt_km": 737.2956949956642, "timestamp": "2025-12-06T14:35:37.510883+00:00", "meta": {"OBJECT_NAME": "IRIDIUM 33 DEB", "OBJECT_ID": "1997-051DG", "EPOCH": "2025-12-06T00:50:01.331232", "MEAN_MOTION": 14.34697204, "ECCENTRICITY": 0.00833635, "INCLINATION": 86.2, "RA_OF_ASC_NODE": 4.3673, "ARG_OF_PERICENTER": 23.9701, "MEAN_ANOMALY": 336.5339, "EPHEMERIS_TYPE": 0, "CLASSIFICATION_TYPE": "U", "NORAD_CAT_ID": 34097, "ELEMENT_SET_NO": 999, "REV_AT_EPOCH": 87023, "BSTAR": 0.002193681, "MEAN_MOTION_DOT": 6.476e-05, "MEAN_MOTION_DDOT": 0}, "tle": {"line1": "1 34097U 97051DG  25340.03473763  .00006476  00000+0  21937-2 0  9998", "line2": "2 34097  86.2000   4.3673 0083363  23.9701 336.5339 14.34697204870231"}}, "geometry": {"type": "Point", "coordinates": [26.08269539455626, 79.92575109098019]}}, {"type": "Feature", "properties": {"norad_id": 34145, "name": "IRIDIUM 33 DEB", "group": "iridium-33-debris", "lat": -4.2070517949397095, "lon": 155.53691770063355, "alt_km": 741.6050638895167, "timestamp": "2025-12-06T14:35:37.510894+00:00", "meta": {"OBJECT_NAME": "IRIDIUM 33 DEB", "OBJECT_ID": "1997-051DY", "EPOCH": "2025-12-05T17:45:58.616928", "MEAN_MOTION": 14.42213658, "ECCENTRICITY": 0.00554485, "INCLINATION": 86.2109, "RA_OF_ASC_NODE": 335.644, "ARG_OF_PERICENTER": 116.0752, "MEAN_ANOMALY": 244.6171, "EPHEMERIS_TYPE": 0, "CLASSIFICATION_TYPE": "U", "NORAD_CAT_ID": 34145, "ELEMENT_SET_NO": 999, "REV_AT_EPOCH": 87537, "BSTAR": 0.0019099545, "MEAN_MOTION_DOT": 6.43e-05, "MEAN_MOTION_DDOT": 0}, "tle": {"line1": "1 34145U 97051DY  25339.74026177  .00006430  00000+0  19100-2 0  9990", "line2": "2 34145  86.2109 335.6440 0055448 116.0752 244.6171 14.42213658875379"}}, "geometry": {"type": "Point", "coordinates": [155.53691770063355, -4.2070517949397095]}}, {"type": "Feature", "properties": {"norad_id": 34146, "name": "IRIDIUM 33 DEB", "group": "iridium-33-debris", "lat": 32.12012977405741, "lon": -5.151891090615523, "alt_km": 742.3844950930043, "timestamp": "2025-12-06T14:35:37.510905+00:00", "meta": {"OBJECT_NAME": "IRIDIUM 33 DEB", "OBJECT_ID": "1997-051DZ", "EPOCH": "2025-12-06T07:52:36.890400", "MEAN_MOTION": 14.48981713, "ECCENTRICITY": 0.00250574, "INCLINATION": 86.2831, "RA_OF_ASC_NODE": 352.6328, "ARG_OF_PERICENTER": 244.5586, "MEAN_ANOMALY": 128.6298, "EPHEMERIS_TYPE": 0, "CLASSIFICATION_TYPE": "U", "NORAD_CAT_ID": 34146, "ELEMENT_SET_NO": 999, "REV_AT_EPOCH": 88014, "BSTAR": 0.0017363381, "MEAN_MOTION_DOT": 6.627e-05, "MEAN_MOTION_DDOT": 0}, "tle": {"line1": "1 34146U 97051DZ  25340.32820475  .00006627  00000+0  17363-2 0  9997", "line2": "2 34146  86.2831 352.6328 0025057 244.5586 128.6298 14.48981713880143"}}, "geometry": {"type": "Point", "coordinates": [-5.151891090615523, 32.12012977405741]}}, {"type": "Feature", "properties": {"norad_id": 34159, "name": "IRIDIUM 33 DEB", "group": "iridium-33-debris", "lat": -20.752394805910633, "lon": 49.47080471222378, "alt_km": 752.6319407873407, "timestamp": "2025-12-06T14:35:37.510915+00:00", "meta": {"OBJECT_NAME": "IRIDIUM 33 DEB", "OBJECT_ID": "1997-051EN", "EPOCH": "2025-12-06T04:40:22.298592", "MEAN_MOTION": 14.38468765, "ECCENTRICITY": 0.00261971, "INCLINATION": 86.3518, "RA_OF_ASC_NODE": 51.0322, "ARG_OF_PERICENTER": 310.8429, "MEAN_ANOMALY": 49.0498, "EPHEMERIS_TYPE": 0, "CLASSIFICATION_TYPE": "U", "NORAD_CAT_ID": 34159, "ELEMENT_SET_NO": 999, "REV_AT_EPOCH": 87865, "BSTAR": 0.00076720593, "MEAN_MOTION_DOT": 2.369e-05, "MEAN_MOTION_DDOT": 0}, "tle": {"line1": "1 34159U 97051EN  25340.19470253  .00002369  00000+0  76721-3 0  9994", "line2": "2 34159  86.3518  51.0322 0026197 310.8429  49.0498 14.38468765878650"}}, "geometry": {"type": "Point", "coordinates": [49.47080471222378, -20.752394805910633]}}, {"type": "Feature", "properties": {"norad_id": 34350, "name": "IRIDIUM 33 DEB", "group": "iridium-33-debris", "lat": -36.23119273443646, "lon": -171.83484709427879, "alt_km": 739.7770425183298, "timestamp": "2025-12-06T14:35:37.510925+00:00", "meta": {"OBJECT_NAME": "IRIDIUM 33 DEB", "OBJECT_ID": "1997-051ES", "EPOCH": "2025-12-06T00:22:25.470048", "MEAN_MOTION": 14.4536345, "ECCENTRICITY": 0.00221321, "INCLINATION": 86.328, "RA_OF_ASC_NODE": 5.7251, "ARG_OF_PERICENTER": 156.3145, "MEAN_ANOMALY": 218.6789, "EPHEMERIS_TYPE": 0, "CLASSIFICATION_TYPE": "U", "NORAD_CAT_ID": 34350, "ELEMENT_SET_NO": 999, "REV_AT_EPOCH": 88196, "BSTAR": 0.00055324813, "MEAN_MOTION_DOT": 1.969e-05, "MEAN_MOTION_DDOT": 0}, "tle": {"line1": "1 34350U 97051ES  25340.01557257  .00001969  00000+0  55325-3 0  9990", "line2": "2 34350  86.3280   5.7251 0022132 156.3145 218.6789 14.45363450881967"}}, "geometry": {"type": "Point", "coordinates": [-171.83484709427879, -36.23119273443646]}}, {"type": "Feature", "properties": {"norad_id": 34366, "name": "IRIDIUM 33 DEB", "group": "iridium-33-debris", "lat": -6.634536424676044, "lon": 51.55652874653671, "alt_km": 731.6523641662443, "timestamp": "2025-12-06T14:35:37.510936+00:00", "meta": {"OBJECT_NAME": "IRIDIUM 33 DEB", "OBJECT_ID": "1997-051FJ", "EPOCH": "2025-12-05T16:05:01.645152", "MEAN_MOTION": 14.53959428, "ECCENTRICITY": 0.00219245, "INCLINATION": 86.3705, "RA_OF_ASC_NODE": 52.3872, "ARG_OF_PERICENTER": 162.3006, "MEAN_ANOMALY": 325.0781, "EPHEMERIS_TYPE": 0, "CLASSIFICATION_TYPE": "U", "NORAD_CAT_ID": 34366, "ELEMENT_SET_NO": 999, "REV_AT_EPOCH": 88079, "BSTAR": 0.0022295515, "MEAN_MOTION_DOT": 9.442e-05, "MEAN_MOTION_DDOT": 0}, "tle": {"line1": "1 34366U 97051FJ  25339.67015793  .00009442  00000+0  22296-2 0  9995", "line2": "2 34366  86.3705  52.3872 0021924 162.3006 325.0781 14.53959428880794"}}, "geometry": {"type": "Point", "coordinates": [51.55652874653671, -6.634536424676044]}}]}